[{"OBJECT_NAME":"HAIYANG-1C","OBJECT_ID":"2018-068A","EPOCH":"2026-03-09T23:11:36.870144","MEAN_MOTION":14.34145137,"ECCENTRICITY":0.00114449,"INCLINATION":98.527,"RA_OF_ASC_NODE":142.6779,"ARG_OF_PERICENTER":34.5915,"MEAN_ANOMALY":325.6013,"EPHEMERIS_TYPE":0,"CLASSIFICATION_TYPE":"U","NORAD_CAT_ID":43609,"ELEMENT_SET_NO":999,"REV_AT_EPOCH":39286,"BSTAR":4.0329797e-5,"MEAN_MOTION_DOT":6.9e-7,"MEAN_MOTION_DDOT":0},{"OBJECT_NAME":"COSMOS 2056","OBJECT_ID":"1990-004A","EPOCH":"2026-03-09T21:17:28.136544","MEAN_MOTION":14.34248146,"ECCENTRICITY":0.00210102,"INCLINATION":74.0346,"RA_OF_ASC_NODE":348.1772,"ARG_OF_PERICENTER":68.4541,"MEAN_ANOMALY":291.8848,"EPHEMERIS_TYPE":0,"CLASSIFICATION_TYPE":"U","NORAD_CAT_ID":20432,"ELEMENT_SET_NO":999,"REV_AT_EPOCH":88949,"BSTAR":8.3302337e-5,"MEAN_MOTION_DOT":2.08e-6,"MEAN_MOTION_DDOT":0}]
